{
"type": "FeatureCollection",
"name": "district_alerts_2024-07-13",
"crs": { "type": "name", "properties": { "name": "urn:ogc:def:crs:OGC:1.3:CRS84" } },
"features": [
{ "type": "Feature", "properties": { "district": "Mumbai City", "lon": 72.83, "lat": 18.93, "division": "Konkan", "radius": 0.15, "raw_mean": 26.3, "corr_mean": 0.0, "corr_p90": 0.0, "corr_max": 0.0, "dominant_regime": 4, "p_heavy": 0.005, "p_very_heavy": 0.0, "p_extremely_heavy": 0.0, "alert_level": "Green", "alert_color": "#2ca02c", "cell_count": 1, "explanation": "Classified as **Coastal** due to immediate proximity to the Arabian Sea (72.8°E, elevation 0m) with very high boundary layer relative humidity (80.0%), driving shallow marine convective showers." }, "geometry": { "type": "Polygon", "coordinates": [ [ [ 72.958083270185398, 18.93 ], [ 72.959428463239746, 18.983611024831013 ], [ 72.949656210154956, 19.049656210154961 ], [ 72.890279800624469, 19.075528312204753 ], [ 72.83, 19.09986107529819 ], [ 72.77039821053927, 19.073891448457786 ], [ 72.71675863284517, 19.043241367154835 ], [ 72.700023146225917, 18.98383817562781 ], [ 72.70245908051659, 18.93 ], [ 72.689256183321859, 18.871702002311761 ], [ 72.7103972240253, 18.810397224025301 ], [ 72.769100129041874, 18.782974705586124 ], [ 72.83, 18.777332376373121 ], [ 72.895889917276307, 18.770927668087889 ], [ 72.926989821480305, 18.833010178519693 ], [ 72.962494446271506, 18.875119003415229 ], [ 72.958083270185398, 18.93 ] ] ] } },
{ "type": "Feature", "properties": { "district": "Mumbai Suburban", "lon": 72.85, "lat": 19.12, "division": "Konkan", "radius": 0.2, "raw_mean": 32.7, "corr_mean": 9.3, "corr_p90": 18.6, "corr_max": 18.7, "dominant_regime": 0, "p_heavy": 0.005, "p_very_heavy": 0.001, "p_extremely_heavy": 0.0, "alert_level": "Green", "alert_color": "#2ca02c", "cell_count": 4, "explanation": "Classified as **Active Monsoon** characterized by a well-established low-level westerly jet (12.0 m/s), abundant tropospheric moisture (80.0%), and widespread monsoon precipitation without isolated cyclonic centers." }, "geometry": { "type": "Polygon", "coordinates": [ [ [ 73.079632126766612, 19.12 ], [ 73.025455892424645, 19.192676210240567 ], [ 73.009087798590471, 19.279087798590474 ], [ 72.922312336839695, 19.294577424325283 ], [ 72.85, 19.332214742671454 ], [ 72.784403445068691, 19.278364092560121 ], [ 72.699486456373563, 19.270513543626436 ], [ 72.646414157483576, 19.204328017077454 ], [ 72.66109462590147, 19.12 ], [ 72.691468287556702, 19.054334014639757 ], [ 72.722737789876447, 18.992737789876454 ], [ 72.763694916603953, 18.911641097163521 ], [ 72.85, 18.941643315013394 ], [ 72.927297985566469, 18.933386154901303 ], [ 73.0003827517952, 18.969617248204791 ], [ 73.016812568099695, 19.050903971918821 ], [ 73.079632126766612, 19.12 ] ] ] } },
{ "type": "Feature", "properties": { "district": "Thane", "lon": 73.05, "lat": 19.28, "division": "Konkan", "radius": 0.35, "raw_mean": 43.1, "corr_mean": 10.2, "corr_p90": 21.3, "corr_max": 24.0, "dominant_regime": 0, "p_heavy": 0.005, "p_very_heavy": 0.001, "p_extremely_heavy": 0.0, "alert_level": "Green", "alert_color": "#2ca02c", "cell_count": 6, "explanation": "Classified as **Active Monsoon** characterized by a well-established low-level westerly jet (12.0 m/s), abundant tropospheric moisture (80.0%), and widespread monsoon precipitation without isolated cyclonic centers." }, "geometry": { "type": "Polygon", "coordinates": [ [ [ 73.419364799777924, 19.28 ], [ 73.36195949960161, 19.409217855646116 ], [ 73.267365098790322, 19.497365098790322 ], [ 73.196375396121311, 19.633381466513804 ], [ 73.05, 19.67024480365572 ], [ 72.900985120363387, 19.639753743414087 ], [ 72.771054518376104, 19.558945481623898 ], [ 72.732115067633643, 19.411672250260199 ], [ 72.664952358140539, 19.28 ], [ 72.709392337516377, 19.138915686751091 ], [ 72.772656483913053, 19.00265648391305 ], [ 72.918702188073141, 18.963019041736274 ], [ 73.05, 18.906447250684195 ], [ 73.196801951821115, 18.925588736930621 ], [ 73.261789625435341, 19.068210374564664 ], [ 73.344201596973789, 19.158137708461631 ], [ 73.419364799777924, 19.28 ] ] ] } },
{ "type": "Feature", "properties": { "district": "Palghar", "lon": 72.88, "lat": 19.8, "division": "Konkan", "radius": 0.45, "raw_mean": 37.8, "corr_mean": 6.5, "corr_p90": 24.0, "corr_max": 29.6, "dominant_regime": 4, "p_heavy": 0.005, "p_very_heavy": 0.0, "p_extremely_heavy": 0.0, "alert_level": "Green", "alert_color": "#2ca02c", "cell_count": 11, "explanation": "Classified as **Coastal** due to immediate proximity to the Arabian Sea (72.9°E, elevation 0m) with very high boundary layer relative humidity (80.0%), driving shallow marine convective showers." }, "geometry": { "type": "Polygon", "coordinates": [ [ [ 73.318469691388415, 19.8 ], [ 73.303178698346599, 19.97528635616256 ], [ 73.173765070176728, 20.093765070176737 ], [ 73.060635108609489, 20.236091729045775 ], [ 72.88, 20.230878166149012 ], [ 72.682266768504462, 20.277370249208367 ], [ 72.554533730078163, 20.125466269921834 ], [ 72.459761993916686, 19.974068281544334 ], [ 72.388742192514712, 19.8 ], [ 72.42041608668157, 19.609634110055008 ], [ 72.585268281289899, 19.505268281289911 ], [ 72.724092258566344, 19.423605416151922 ], [ 72.88, 19.335940244541163 ], [ 73.060327009430907, 19.364652088169716 ], [ 73.169003117827145, 19.510996882172858 ], [ 73.340635235226443, 19.609198638262285 ], [ 73.318469691388415, 19.8 ] ] ] } },
{ "type": "Feature", "properties": { "district": "Raigad", "lon": 73.15, "lat": 18.55, "division": "Konkan", "radius": 0.45, "raw_mean": 51.0, "corr_mean": 7.6, "corr_p90": 23.9, "corr_max": 27.5, "dominant_regime": 3, "p_heavy": 0.005, "p_very_heavy": 0.001, "p_extremely_heavy": 0.0, "alert_level": "Green", "alert_color": "#2ca02c", "cell_count": 9, "explanation": "Classified as **Orographic** due to prominent Western Ghats terrain (0m elevation) directly intercepting strong low-level westerly winds (12.0 m/s), producing an intense upslope moisture lift of 0.0 mm/s." }, "geometry": { "type": "Polygon", "coordinates": [ [ [ 73.59808158270647, 18.55 ], [ 73.610333264039696, 18.740676281176714 ], [ 73.448388578371691, 18.84838857837169 ], [ 73.323506945353799, 18.968882820639056 ], [ 73.15, 18.975280573419919 ], [ 72.964680223427465, 18.997401517977377 ], [ 72.859780499454587, 18.840219500545427 ], [ 72.736691329313004, 18.721198056844955 ], [ 72.703848733418369, 18.55 ], [ 72.695973753912583, 18.361936171197243 ], [ 72.819194911516874, 18.219194911516873 ], [ 72.979790258205071, 18.139077332910649 ], [ 73.15, 18.087036688253946 ], [ 73.314821450053827, 18.15208581991007 ], [ 73.421866571673064, 18.278133428326946 ], [ 73.507421473107769, 18.401951178355393 ], [ 73.59808158270647, 18.55 ] ] ] } },
{ "type": "Feature", "properties": { "district": "Ratnagiri", "lon": 73.35, "lat": 16.98, "division": "Konkan", "radius": 0.55, "raw_mean": 55.1, "corr_mean": 3.3, "corr_p90": 15.8, "corr_max": 17.8, "dominant_regime": 3, "p_heavy": 0.006, "p_very_heavy": 0.001, "p_extremely_heavy": 0.0, "alert_level": "Green", "alert_color": "#2ca02c", "cell_count": 15, "explanation": "Classified as **Orographic** due to prominent Western Ghats terrain (0m elevation) directly intercepting strong low-level westerly winds (12.0 m/s), producing an intense upslope moisture lift of 0.0 mm/s." }, "geometry": { "type": "Polygon", "coordinates": [ [ [ 73.969625670990865, 16.98 ], [ 73.837451419955244, 17.181908989143491 ], [ 73.747595147347184, 17.37759514734719 ], [ 73.543591900747614, 17.4473721923505 ], [ 73.35, 17.520295577195615 ], [ 73.130621107504808, 17.509627497560263 ], [ 72.962670350013099, 17.367329649986893 ], [ 72.838571528990954, 17.19184060887568 ], [ 72.776997154924857, 16.98 ], [ 72.781684710425296, 16.744596099354169 ], [ 72.906852522122193, 16.536852522122199 ], [ 73.135346695344623, 16.461781080692788 ], [ 73.35, 16.457501231003125 ], [ 73.58479561306001, 16.413153246564796 ], [ 73.722954754390443, 16.607045245609545 ], [ 73.835960600607081, 16.778708528449567 ], [ 73.969625670990865, 16.98 ] ] ] } },
{ "type": "Feature", "properties": { "district": "Sindhudurg", "lon": 73.65, "lat": 16.12, "division": "Konkan", "radius": 0.5, "raw_mean": 58.6, "corr_mean": 7.7, "corr_p90": 33.4, "corr_max": 33.9, "dominant_regime": 3, "p_heavy": 0.005, "p_very_heavy": 0.001, "p_extremely_heavy": 0.0, "alert_level": "Green", "alert_color": "#2ca02c", "cell_count": 13, "explanation": "Classified as **Orographic** due to prominent Western Ghats terrain (0m elevation) directly intercepting strong low-level westerly winds (12.0 m/s), producing an intense upslope moisture lift of 0.0 mm/s." }, "geometry": { "type": "Polygon", "coordinates": [ [ [ 74.146160725925057, 16.12 ], [ 74.133159243017019, 16.320131111243565 ], [ 74.032882650767149, 16.502882650767141 ], [ 73.869863505198325, 16.650797456120682 ], [ 73.65, 16.63209124060991 ], [ 73.4466260875285, 16.610988057721585 ], [ 73.331515891963946, 16.438484108036064 ], [ 73.14442081000729, 16.32941775734859 ], [ 73.091177894696656, 16.12 ], [ 73.132777562729373, 15.905759451718838 ], [ 73.338030848940662, 15.808030848940664 ], [ 73.48305363371162, 15.716955818317677 ], [ 73.65, 15.662022094041637 ], [ 73.841860526123114, 15.656807715749572 ], [ 73.968575903709493, 15.801424096290507 ], [ 74.088656579098725, 15.938302495713126 ], [ 74.146160725925057, 16.12 ] ] ] } },
{ "type": "Feature", "properties": { "district": "Pune", "lon": 74.0, "lat": 18.6, "division": "Pune", "radius": 0.7, "raw_mean": 58.5, "corr_mean": 18.9, "corr_p90": 35.0, "corr_max": 38.9, "dominant_regime": 0, "p_heavy": 0.005, "p_very_heavy": 0.001, "p_extremely_heavy": 0.0, "alert_level": "Yellow", "alert_color": "#bcbd22", "cell_count": 21, "explanation": "Classified as **Active Monsoon** characterized by a well-established low-level westerly jet (12.0 m/s), abundant tropospheric moisture (80.0%), and widespread monsoon precipitation without isolated cyclonic centers." }, "geometry": { "type": "Polygon", "coordinates": [ [ [ 74.678065874807146, 18.6 ], [ 74.595223628599541, 18.846549699610858 ], [ 74.444718635785307, 19.044718635785308 ], [ 74.264934419047393, 19.239608267603654 ], [ 74.0, 19.391475953718189 ], [ 73.741333158432113, 19.22447699704939 ], [ 73.465756061502177, 19.134243938497821 ], [ 73.311726708779872, 18.885092131842544 ], [ 73.270202629459121, 18.6 ], [ 73.448265906504147, 18.371464255650395 ], [ 73.573496639228566, 18.17349663922856 ], [ 73.747059238458405, 17.989346983009295 ], [ 74.0, 17.841503784873673 ], [ 74.244043856469233, 18.01082601189815 ], [ 74.490439608074567, 18.109560391925427 ], [ 74.73419143980145, 18.295887948256013 ], [ 74.678065874807146, 18.6 ] ] ] } },
{ "type": "Feature", "properties": { "district": "Satara", "lon": 74.1, "lat": 17.68, "division": "Pune", "radius": 0.55, "raw_mean": 56.5, "corr_mean": 21.9, "corr_p90": 34.9, "corr_max": 36.7, "dominant_regime": 0, "p_heavy": 0.005, "p_very_heavy": 0.001, "p_extremely_heavy": 0.0, "alert_level": "Yellow", "alert_color": "#bcbd22", "cell_count": 14, "explanation": "Classified as **Active Monsoon** characterized by a well-established low-level westerly jet (12.0 m/s), abundant tropospheric moisture (80.0%), and widespread monsoon precipitation without isolated cyclonic centers." }, "geometry": { "type": "Polygon", "coordinates": [ [ [ 74.598278992036342, 17.68 ], [ 74.669759409047657, 17.91600207451722 ], [ 74.50957821059221, 18.089578210592219 ], [ 74.284222264126385, 18.124751888545006 ], [ 74.1, 18.246843067259558 ], [ 73.886117602265216, 18.196357785364167 ], [ 73.747571424539657, 18.032428575460333 ], [ 73.556627771216583, 17.905072146578984 ], [ 73.527286307521578, 17.68 ], [ 73.599526232226822, 17.472696977776387 ], [ 73.725001790512096, 17.305001790512105 ], [ 73.900233652062894, 17.197721373504521 ], [ 74.1, 17.078684326999419 ], [ 74.308081737027948, 17.177646248384967 ], [ 74.501870035852392, 17.278129964147606 ], [ 74.571725666383088, 17.484604831264633 ], [ 74.598278992036342, 17.68 ] ] ] } },
{ "type": "Feature", "properties": { "district": "Kolhapur", "lon": 74.22, "lat": 16.7, "division": "Pune", "radius": 0.5, "raw_mean": 53.6, "corr_mean": 24.3, "corr_p90": 33.8, "corr_max": 33.9, "dominant_regime": 0, "p_heavy": 0.005, "p_very_heavy": 0.001, "p_extremely_heavy": 0.0, "alert_level": "Yellow", "alert_color": "#bcbd22", "cell_count": 12, "explanation": "Classified as **Active Monsoon** characterized by a well-established low-level westerly jet (12.0 m/s), abundant tropospheric moisture (80.0%), and widespread monsoon precipitation without isolated cyclonic centers." }, "geometry": { "type": "Polygon", "coordinates": [ [ [ 74.772450764520869, 16.7 ], [ 74.737219777992649, 16.914239446772157 ], [ 74.603538959775605, 17.083538959775609 ], [ 74.398593509830917, 17.13116287358562 ], [ 74.22, 17.15005305388738 ], [ 74.032270641771191, 17.153218762691584 ], [ 73.844686941796922, 17.075313058203079 ], [ 73.749816390944332, 16.894756427676384 ], [ 73.729497858926763, 16.7 ], [ 73.823136391879174, 16.535613711104034 ], [ 73.916690640947024, 16.396690640947025 ], [ 74.023525734231185, 16.225669162923619 ], [ 74.22, 16.146590321798069 ], [ 74.390927748949082, 16.287343910301214 ], [ 74.548376007911912, 16.371623992088082 ], [ 74.628961405944793, 16.5306026391705 ], [ 74.772450764520869, 16.7 ] ] ] } },
{ "type": "Feature", "properties": { "district": "Sangli", "lon": 74.7, "lat": 17.0, "division": "Pune", "radius": 0.55, "raw_mean": 46.8, "corr_mean": 22.6, "corr_p90": 29.1, "corr_max": 34.4, "dominant_regime": 0, "p_heavy": 0.005, "p_very_heavy": 0.0, "p_extremely_heavy": 0.0, "alert_level": "Yellow", "alert_color": "#bcbd22", "cell_count": 16, "explanation": "Classified as **Active Monsoon** characterized by a well-established low-level westerly jet (12.0 m/s), abundant tropospheric moisture (80.0%), and widespread monsoon precipitation without isolated cyclonic centers." }, "geometry": { "type": "Polygon", "coordinates": [ [ [ 75.24765526775235, 17.0 ], [ 75.262629544937397, 17.233048788104874 ], [ 75.064697151343182, 17.364697151343176 ], [ 74.912064044321312, 17.511967891892176 ], [ 74.7, 17.519787367513231 ], [ 74.473498050855781, 17.546824077527905 ], [ 74.345287277111154, 17.354712722888852 ], [ 74.194844958049217, 17.209242069477167 ], [ 74.154704007511327, 17.0 ], [ 74.145079032559806, 16.770144209241074 ], [ 74.295682669631731, 16.595682669631731 ], [ 74.491965871139527, 16.497761184668569 ], [ 74.7, 16.43415595231038 ], [ 74.901448438954674, 16.513660446556752 ], [ 75.032281365378182, 16.667718634621821 ], [ 75.136848467131713, 16.819051440212146 ], [ 75.24765526775235, 17.0 ] ] ] } },
{ "type": "Feature", "properties": { "district": "Solapur", "lon": 75.6, "lat": 17.65, "division": "Pune", "radius": 0.7, "raw_mean": 43.4, "corr_mean": 20.2, "corr_p90": 24.9, "corr_max": 26.5, "dominant_regime": 0, "p_heavy": 0.005, "p_very_heavy": 0.0, "p_extremely_heavy": 0.0, "alert_level": "Yellow", "alert_color": "#bcbd22", "cell_count": 22, "explanation": "Classified as **Active Monsoon** characterized by a well-established low-level westerly jet (12.0 m/s), abundant tropospheric moisture (80.0%), and widespread monsoon precipitation without isolated cyclonic centers." }, "geometry": { "type": "Polygon", "coordinates": [ [ [ 76.229491278944636, 17.65 ], [ 76.16634710675882, 17.884588652630267 ], [ 76.081957691567666, 18.131957691567663 ], [ 75.828108505915367, 18.200702648673548 ], [ 75.6, 18.371158718882761 ], [ 75.303573169098414, 18.365637675413883 ], [ 75.108743201091059, 18.14125679890893 ], [ 74.957383663560165, 17.916180401955888 ], [ 74.858538498912949, 17.65 ], [ 75.004668764878247, 17.403405728308247 ], [ 75.095147052191777, 17.145147052191781 ], [ 75.317918600036208, 16.968995258514255 ], [ 75.6, 17.00869549337294 ], [ 75.843455847010674, 17.062245592307793 ], [ 76.080425959092565, 17.16957404090742 ], [ 76.235789512154824, 17.386647361250894 ], [ 76.229491278944636, 17.65 ] ] ] } },
{ "type": "Feature", "properties": { "district": "Nashik", "lon": 74.0, "lat": 20.15, "division": "Nashik", "radius": 0.65, "raw_mean": 57.5, "corr_mean": 18.3, "corr_p90": 36.3, "corr_max": 38.0, "dominant_regime": 0, "p_heavy": 0.005, "p_very_heavy": 0.0, "p_extremely_heavy": 0.0, "alert_level": "Yellow", "alert_color": "#bcbd22", "cell_count": 21, "explanation": "Classified as **Active Monsoon** characterized by a well-established low-level westerly jet (12.0 m/s), abundant tropospheric moisture (80.0%), and widespread monsoon precipitation without isolated cyclonic centers." }, "geometry": { "type": "Polygon", "coordinates": [ [ [ 74.553091698598976, 20.15 ], [ 74.679861204298831, 20.431607731351882 ], [ 74.449747565829938, 20.599747565829944 ], [ 74.217967562089967, 20.676220244554987 ], [ 74.0, 20.759522582416544 ], [ 73.725843184080603, 20.811873103209617 ], [ 73.59626251669863, 20.553737483301372 ], [ 73.360844665875803, 20.414746807857348 ], [ 73.396396544994815, 20.15 ], [ 73.444877645241277, 19.920060791882449 ], [ 73.53398591566058, 19.683985915660582 ], [ 73.71762957286893, 19.468297485207074 ], [ 74.0, 19.495813850637298 ], [ 74.22145408161893, 19.615362552712693 ], [ 74.398169280804879, 19.751830719195112 ], [ 74.520184397372645, 19.934532567673376 ], [ 74.553091698598976, 20.15 ] ] ] } },
{ "type": "Feature", "properties": { "district": "Ahmednagar", "lon": 74.75, "lat": 19.1, "division": "Nashik", "radius": 0.8, "raw_mean": 45.1, "corr_mean": 21.4, "corr_p90": 29.1, "corr_max": 33.8, "dominant_regime": 0, "p_heavy": 0.005, "p_very_heavy": 0.0, "p_extremely_heavy": 0.0, "alert_level": "Yellow", "alert_color": "#bcbd22", "cell_count": 31, "explanation": "Classified as **Active Monsoon** characterized by a well-established low-level westerly jet (12.0 m/s), abundant tropospheric moisture (80.0%), and widespread monsoon precipitation without isolated cyclonic centers." }, "geometry": { "type": "Polygon", "coordinates": [ [ [ 75.441171910666213, 19.1 ], [ 75.53811579785318, 19.426448252191282 ], [ 75.316396519110398, 19.666396519110403 ], [ 75.022793186209128, 19.758581009869044 ], [ 74.75, 20.011596867167523 ], [ 74.441040936515677, 19.845893161281943 ], [ 74.169833027036631, 19.680166972963374 ], [ 73.99496308836116, 19.412746528893109 ], [ 73.900332256302676, 19.1 ], [ 74.05143702811948, 18.810645742875433 ], [ 74.25157480380993, 18.601574803809928 ], [ 74.489122280570371, 18.470185471632046 ], [ 74.75, 18.298694039553922 ], [ 75.043442990892885, 18.391565951603067 ], [ 75.355426249682765, 18.494573750317233 ], [ 75.527185719179684, 18.778079134633089 ], [ 75.441171910666213, 19.1 ] ] ] } },
{ "type": "Feature", "properties": { "district": "Dhule", "lon": 74.78, "lat": 20.9, "division": "Nashik", "radius": 0.55, "raw_mean": 45.8, "corr_mean": 22.0, "corr_p90": 28.1, "corr_max": 32.1, "dominant_regime": 0, "p_heavy": 0.005, "p_very_heavy": 0.0, "p_extremely_heavy": 0.0, "alert_level": "Yellow", "alert_color": "#bcbd22", "cell_count": 14, "explanation": "Classified as **Active Monsoon** characterized by a well-established low-level westerly jet (12.0 m/s), abundant tropospheric moisture (80.0%), and widespread monsoon precipitation without isolated cyclonic centers." }, "geometry": { "type": "Polygon", "coordinates": [ [ [ 75.361806795371692, 20.9 ], [ 75.25411004065748, 21.096382808897584 ], [ 75.16967314211135, 21.289673142111344 ], [ 74.975691913991838, 21.372442072805846 ], [ 74.78, 21.482215405812568 ], [ 74.543694483867796, 21.470491981909959 ], [ 74.429577820116322, 21.250422179883671 ], [ 74.326539996353915, 21.087829283503957 ], [ 74.232650563786876, 20.9 ], [ 74.292289659181108, 20.697983762323211 ], [ 74.381963344657549, 20.501963344657554 ], [ 74.55540997882558, 20.357791724907038 ], [ 74.78, 20.336638996402982 ], [ 74.962417191688033, 20.459605941816744 ], [ 75.155382812306144, 20.52461718769386 ], [ 75.236469964530741, 20.710923949875401 ], [ 75.361806795371692, 20.9 ] ] ] } },
{ "type": "Feature", "properties": { "district": "Jalgaon", "lon": 75.55, "lat": 21.0, "division": "Nashik", "radius": 0.65, "raw_mean": 46.3, "corr_mean": 22.3, "corr_p90": 28.3, "corr_max": 35.0, "dominant_regime": 0, "p_heavy": 0.005, "p_very_heavy": 0.0, "p_extremely_heavy": 0.0, "alert_level": "Yellow", "alert_color": "#bcbd22", "cell_count": 20, "explanation": "Classified as **Active Monsoon** characterized by a well-established low-level westerly jet (12.0 m/s), abundant tropospheric moisture (80.0%), and widespread monsoon precipitation without isolated cyclonic centers." }, "geometry": { "type": "Polygon", "coordinates": [ [ [ 76.139582802494402, 21.0 ], [ 76.074063598634581, 21.217074250100495 ], [ 75.962087768321481, 21.412087768321488 ], [ 75.788653545169808, 21.57616062545738 ], [ 75.55, 21.612007715352494 ], [ 75.269702726062491, 21.676697480236125 ], [ 75.090367230511077, 21.459632769488923 ], [ 74.956400343981798, 21.24587702814274 ], [ 74.831022927489215, 21.0 ], [ 75.035677751868803, 20.786960749393838 ], [ 75.056199034212042, 20.506199034212038 ], [ 75.268015254648446, 20.319228603389949 ], [ 75.55, 20.370296110117199 ], [ 75.813099268682691, 20.364822177295782 ], [ 75.990546583319045, 20.559453416680956 ], [ 76.148993646195279, 20.7518887079706 ], [ 76.139582802494402, 21.0 ] ] ] } },
{ "type": "Feature", "properties": { "district": "Nandurbar", "lon": 74.25, "lat": 21.5, "division": "Nashik", "radius": 0.5, "raw_mean": 62.8, "corr_mean": 33.1, "corr_p90": 39.3, "corr_max": 39.4, "dominant_regime": 0, "p_heavy": 0.005, "p_very_heavy": 0.0, "p_extremely_heavy": 0.0, "alert_level": "Yellow", "alert_color": "#bcbd22", "cell_count": 10, "explanation": "Classified as **Active Monsoon** characterized by a well-established low-level westerly jet (12.0 m/s), abundant tropospheric moisture (80.0%), and widespread monsoon precipitation without isolated cyclonic centers." }, "geometry": { "type": "Polygon", "coordinates": [ [ [ 74.785795565605341, 21.5 ], [ 74.753645384748395, 21.7086167489894 ], [ 74.579394333978257, 21.829394333978257 ], [ 74.416249320577307, 21.90136136447305 ], [ 74.25, 21.9465219494442 ], [ 74.060276904358375, 21.958032070593426 ], [ 73.923207958798471, 21.826792041201529 ], [ 73.762732955760683, 21.701832618221378 ], [ 73.823117738884818, 21.5 ], [ 73.732614016524252, 21.285691708662604 ], [ 73.897859060653943, 21.147859060653943 ], [ 74.071760423352359, 21.069691596705638 ], [ 74.25, 21.022991936286321 ], [ 74.436434408099174, 21.049907523473976 ], [ 74.570197589966085, 21.179802410033918 ], [ 74.749734767257436, 21.293003081812611 ], [ 74.785795565605341, 21.5 ] ] ] } },
{ "type": "Feature", "properties": { "district": "Chhatrapati Sambhaji Nagar", "lon": 75.35, "lat": 19.88, "division": "Marathwada", "radius": 0.55, "raw_mean": 43.2, "corr_mean": 20.0, "corr_p90": 25.3, "corr_max": 26.5, "dominant_regime": 0, "p_heavy": 0.005, "p_very_heavy": 0.0, "p_extremely_heavy": 0.0, "alert_level": "Yellow", "alert_color": "#bcbd22", "cell_count": 13, "explanation": "Classified as **Active Monsoon** characterized by a well-established low-level westerly jet (12.0 m/s), abundant tropospheric moisture (80.0%), and widespread monsoon precipitation without isolated cyclonic centers." }, "geometry": { "type": "Polygon", "coordinates": [ [ [ 75.950334684038197, 19.88 ], [ 75.809620446699611, 20.070381022566963 ], [ 75.742615687759496, 20.272615687759505 ], [ 75.569105944714224, 20.408968543325663 ], [ 75.35, 20.398529179423065 ], [ 75.144671201727931, 20.375707569534192 ], [ 74.992856263486772, 20.237143736513222 ], [ 74.84292993286715, 20.090035298879858 ], [ 74.734292672793359, 19.88 ], [ 74.814605133235744, 19.65823218496131 ], [ 75.001028827084752, 19.531028827084757 ], [ 75.115428822206084, 19.313695081228101 ], [ 75.35, 19.344733835605449 ], [ 75.582720578066514, 19.318162824188491 ], [ 75.729427789927882, 19.500572210072107 ], [ 75.845899140207393, 19.674591850556936 ], [ 75.950334684038197, 19.88 ] ] ] } },
{ "type": "Feature", "properties": { "district": "Jalna", "lon": 75.88, "lat": 19.84, "division": "Marathwada", "radius": 0.45, "raw_mean": 43.1, "corr_mean": 20.0, "corr_p90": 25.1, "corr_max": 26.5, "dominant_regime": 0, "p_heavy": 0.005, "p_very_heavy": 0.0, "p_extremely_heavy": 0.0, "alert_level": "Yellow", "alert_color": "#bcbd22", "cell_count": 11, "explanation": "Classified as **Active Monsoon** characterized by a well-established low-level westerly jet (12.0 m/s), abundant tropospheric moisture (80.0%), and widespread monsoon precipitation without isolated cyclonic centers." }, "geometry": { "type": "Polygon", "coordinates": [ [ [ 76.367507893508844, 19.84 ], [ 76.277396576594668, 20.004607051666152 ], [ 76.226489622735329, 20.186489622735337 ], [ 76.060143320572905, 20.274904447698031 ], [ 75.88, 20.331730309990419 ], [ 75.727499414822901, 20.208168981004363 ], [ 75.579875432730987, 20.140124567269009 ], [ 75.48318351535292, 20.004366769714032 ], [ 75.393417999819093, 19.84 ], [ 75.467202966195458, 19.669013870090772 ], [ 75.543691834210577, 19.503691834210578 ], [ 75.703556148613785, 19.41402686098607 ], [ 75.88, 19.357748581883762 ], [ 76.039360063032461, 19.45527077452638 ], [ 76.157010554605904, 19.562989445394091 ], [ 76.332395154879833, 19.652611791296895 ], [ 76.367507893508844, 19.84 ] ] ] } },
{ "type": "Feature", "properties": { "district": "Beed", "lon": 75.75, "lat": 18.98, "division": "Marathwada", "radius": 0.55, "raw_mean": 40.3, "corr_mean": 18.0, "corr_p90": 19.8, "corr_max": 21.6, "dominant_regime": 0, "p_heavy": 0.005, "p_very_heavy": 0.0, "p_extremely_heavy": 0.0, "alert_level": "Yellow", "alert_color": "#bcbd22", "cell_count": 17, "explanation": "Classified as **Active Monsoon** characterized by a well-established low-level westerly jet (12.0 m/s), abundant tropospheric moisture (80.0%), and widespread monsoon precipitation without isolated cyclonic centers." }, "geometry": { "type": "Polygon", "coordinates": [ [ [ 76.327811657554832, 18.98 ], [ 76.240824074417489, 19.183305988362946 ], [ 76.13715604613887, 19.36715604613887 ], [ 75.98504797428113, 19.547456007317834 ], [ 75.75, 19.558260915494138 ], [ 75.512923194211965, 19.552354039857576 ], [ 75.317997006015261, 19.412002993984743 ], [ 75.221068191415611, 19.199090728686183 ], [ 75.163977281916715, 18.98 ], [ 75.292242784975841, 18.790390753262855 ], [ 75.353730428019034, 18.583730428019038 ], [ 75.566733619872011, 18.537555819567999 ], [ 75.75, 18.353203512275574 ], [ 75.956800629119911, 18.480739116471426 ], [ 76.180583187430514, 18.549416812569486 ], [ 76.202952262887521, 18.792381029604407 ], [ 76.327811657554832, 18.98 ] ] ] } },
{ "type": "Feature", "properties": { "district": "Latur", "lon": 76.58, "lat": 18.4, "division": "Marathwada", "radius": 0.5, "raw_mean": 44.2, "corr_mean": 20.7, "corr_p90": 24.8, "corr_max": 26.0, "dominant_regime": 0, "p_heavy": 0.005, "p_very_heavy": 0.0, "p_extremely_heavy": 0.0, "alert_level": "Yellow", "alert_color": "#bcbd22", "cell_count": 13, "explanation": "Classified as **Active Monsoon** characterized by a well-established low-level westerly jet (12.0 m/s), abundant tropospheric moisture (80.0%), and widespread monsoon precipitation without isolated cyclonic centers." }, "geometry": { "type": "Polygon", "coordinates": [ [ [ 77.069083888085103, 18.4 ], [ 77.089631173179626, 18.611096143739115 ], [ 76.932617980907239, 18.752617980907242 ], [ 76.775556923869345, 18.87211617782134 ], [ 76.58, 18.925085679259748 ], [ 76.407768825161611, 18.815802838158291 ], [ 76.222221455622247, 18.75777854437775 ], [ 76.161293319869401, 18.573433985566304 ], [ 76.120630231067281, 18.4 ], [ 76.153750448484274, 18.223441654806738 ], [ 76.202397143036208, 18.022397143036208 ], [ 76.392392153264339, 17.947074592003148 ], [ 76.58, 17.94730151882705 ], [ 76.770207616593254, 17.940798192353906 ], [ 76.977812703659083, 18.00218729634091 ], [ 77.022807353441962, 18.216583188685803 ], [ 77.069083888085103, 18.4 ] ] ] } },
{ "type": "Feature", "properties": { "district": "Dharashiv", "lon": 76.05, "lat": 18.18, "division": "Marathwada", "radius": 0.45, "raw_mean": 40.7, "corr_mean": 18.3, "corr_p90": 22.0, "corr_max": 24.9, "dominant_regime": 0, "p_heavy": 0.005, "p_very_heavy": 0.0, "p_extremely_heavy": 0.0, "alert_level": "Yellow", "alert_color": "#bcbd22", "cell_count": 10, "explanation": "Classified as **Active Monsoon** characterized by a well-established low-level westerly jet (12.0 m/s), abundant tropospheric moisture (80.0%), and widespread monsoon precipitation without isolated cyclonic centers." }, "geometry": { "type": "Polygon", "coordinates": [ [ [ 76.477958333487223, 18.18 ], [ 76.52563649621861, 18.377015087493366 ], [ 76.386229415228769, 18.516229415228775 ], [ 76.233237696213067, 18.622374931335578 ], [ 76.05, 18.664734448847923 ], [ 75.893851101446344, 18.55697678863784 ], [ 75.696298646774281, 18.53370135322572 ], [ 75.676591847388863, 18.334670721112211 ], [ 75.547958989387055, 18.18 ], [ 75.595304485185054, 17.991658951013434 ], [ 75.755879998661641, 17.885879998661643 ], [ 75.876335467120043, 17.760736729418035 ], [ 76.05, 17.752762020392801 ], [ 76.201379234314174, 17.814538199457058 ], [ 76.334716791198616, 17.895283208801384 ], [ 76.512256158919129, 17.9885272296852 ], [ 76.477958333487223, 18.18 ] ] ] } },
{ "type": "Feature", "properties": { "district": "Nanded", "lon": 77.32, "lat": 19.15, "division": "Marathwada", "radius": 0.6, "raw_mean": 40.5, "corr_mean": 18.2, "corr_p90": 20.6, "corr_max": 30.6, "dominant_regime": 0, "p_heavy": 0.005, "p_very_heavy": 0.0, "p_extremely_heavy": 0.0, "alert_level": "Yellow", "alert_color": "#bcbd22", "cell_count": 17, "explanation": "Classified as **Active Monsoon** characterized by a well-established low-level westerly jet (12.0 m/s), abundant tropospheric moisture (80.0%), and widespread monsoon precipitation without isolated cyclonic centers." }, "geometry": { "type": "Polygon", "coordinates": [ [ [ 77.984770720796504, 19.15 ], [ 77.948806533339067, 19.410460194217851 ], [ 77.768269653882072, 19.598269653882074 ], [ 77.572474311614599, 19.759526907250805 ], [ 77.32, 19.708527986434625 ], [ 77.057907207019454, 19.782747975413848 ], [ 76.881976230224183, 19.588023769775809 ], [ 76.811262400694162, 19.360726013321603 ], [ 76.704192179851503, 19.15 ], [ 76.800609020049919, 18.934861211930425 ], [ 76.95517242387956, 18.785172423879558 ], [ 77.057057764434006, 18.515201288775899 ], [ 77.32, 18.467884204219441 ], [ 77.57481343213783, 18.534825956257986 ], [ 77.799001042604019, 18.670998957395966 ], [ 77.919424551208479, 18.901710221270037 ], [ 77.984770720796504, 19.15 ] ] ] } },
{ "type": "Feature", "properties": { "district": "Parbhani", "lon": 76.78, "lat": 19.26, "division": "Marathwada", "radius": 0.45, "raw_mean": 40.2, "corr_mean": 18.0, "corr_p90": 20.7, "corr_max": 30.6, "dominant_regime": 0, "p_heavy": 0.005, "p_very_heavy": 0.0, "p_extremely_heavy": 0.0, "alert_level": "Yellow", "alert_color": "#bcbd22", "cell_count": 10, "explanation": "Classified as **Active Monsoon** characterized by a well-established low-level westerly jet (12.0 m/s), abundant tropospheric moisture (80.0%), and widespread monsoon precipitation without isolated cyclonic centers." }, "geometry": { "type": "Polygon", "coordinates": [ [ [ 77.275601214726834, 19.26 ], [ 77.210033500382423, 19.438125708133175 ], [ 77.112003648850504, 19.592003648850508 ], [ 76.941233946036405, 19.649253179236013 ], [ 76.78, 19.711974306565207 ], [ 76.630711451489475, 19.620414438521102 ], [ 76.447110150168513, 19.592889849831487 ], [ 76.420600161392031, 19.408868287466127 ], [ 76.393771753358109, 19.26 ], [ 76.31468978150339, 19.067262196787915 ], [ 76.460641503204513, 18.940641503204521 ], [ 76.615109326330341, 18.861918699317865 ], [ 76.78, 18.753082505596286 ], [ 76.957027468734594, 18.832617884068352 ], [ 77.062580759004462, 18.977419240995545 ], [ 77.202915586078035, 19.08482262850751 ], [ 77.275601214726834, 19.26 ] ] ] } },
{ "type": "Feature", "properties": { "district": "Hingoli", "lon": 77.15, "lat": 19.72, "division": "Marathwada", "radius": 0.4, "raw_mean": 40.7, "corr_mean": 18.3, "corr_p90": 20.3, "corr_max": 21.8, "dominant_regime": 0, "p_heavy": 0.005, "p_very_heavy": 0.0, "p_extremely_heavy": 0.0, "alert_level": "Yellow", "alert_color": "#bcbd22", "cell_count": 7, "explanation": "Classified as **Active Monsoon** characterized by a well-established low-level westerly jet (12.0 m/s), abundant tropospheric moisture (80.0%), and widespread monsoon precipitation without isolated cyclonic centers." }, "geometry": { "type": "Polygon", "coordinates": [ [ [ 77.599059415739603, 19.72 ], [ 77.567765755016907, 19.893044241623038 ], [ 77.420280022392603, 19.990280022392593 ], [ 77.285073374756905, 20.046095973253625 ], [ 77.15, 20.145515703604541 ], [ 76.998771708420406, 20.085097392545975 ], [ 76.868330745526407, 20.001669254473594 ], [ 76.787024483973426, 19.87034938154758 ], [ 76.79762561245505, 19.72 ], [ 76.789322996742939, 19.570602693614838 ], [ 76.870048626012107, 19.4400486260121 ], [ 77.012789170889448, 19.388743755456836 ], [ 77.15, 19.375503305614451 ], [ 77.298646200434675, 19.361136326915389 ], [ 77.430953769105514, 19.439046230894487 ], [ 77.46656150133208, 19.588875932823061 ], [ 77.599059415739603, 19.72 ] ] ] } },
{ "type": "Feature", "properties": { "district": "Amravati", "lon": 77.75, "lat": 20.93, "division": "Vidarbha", "radius": 0.65, "raw_mean": 40.9, "corr_mean": 18.4, "corr_p90": 21.9, "corr_max": 24.7, "dominant_regime": 0, "p_heavy": 0.005, "p_very_heavy": 0.0, "p_extremely_heavy": 0.0, "alert_level": "Yellow", "alert_color": "#bcbd22", "cell_count": 18, "explanation": "Classified as **Active Monsoon** characterized by a well-established low-level westerly jet (12.0 m/s), abundant tropospheric moisture (80.0%), and widespread monsoon precipitation without isolated cyclonic centers." }, "geometry": { "type": "Polygon", "coordinates": [ [ [ 78.365360948729702, 20.93 ], [ 78.300715251527208, 21.158113726188283 ], [ 78.239922402132393, 21.419922402132386 ], [ 77.963842464377862, 21.446261377712322 ], [ 77.75, 21.488868854828997 ], [ 77.468743017662248, 21.60901442127193 ], [ 77.296968112274016, 21.383031887725984 ], [ 77.234102726234269, 21.143691647585072 ], [ 77.030468233829623, 20.93 ], [ 77.116028525303818, 20.667400417023167 ], [ 77.304682318342287, 20.48468231834228 ], [ 77.469059540775362, 20.251749733120562 ], [ 77.75, 20.260638465372864 ], [ 77.962058860631458, 20.41804462264216 ], [ 78.200645494419248, 20.479354505580751 ], [ 78.30981280726165, 20.698117942842067 ], [ 78.365360948729702, 20.93 ] ] ] } },
{ "type": "Feature", "properties": { "district": "Akola", "lon": 77.0, "lat": 20.7, "division": "Vidarbha", "radius": 0.45, "raw_mean": 43.4, "corr_mean": 20.0, "corr_p90": 24.0, "corr_max": 36.5, "dominant_regime": 0, "p_heavy": 0.005, "p_very_heavy": 0.0, "p_extremely_heavy": 0.0, "alert_level": "Yellow", "alert_color": "#bcbd22", "cell_count": 9, "explanation": "Classified as **Active Monsoon** characterized by a well-established low-level westerly jet (12.0 m/s), abundant tropospheric moisture (80.0%), and widespread monsoon precipitation without isolated cyclonic centers." }, "geometry": { "type": "Polygon", "coordinates": [ [ [ 77.389493448189199, 20.7 ], [ 77.36950211776724, 20.853052788504773 ], [ 77.323229265490582, 21.023229265490588 ], [ 77.169991681735652, 21.110396223536807 ], [ 77.0, 21.162179722708188 ], [ 76.833498763305357, 21.101969543780104 ], [ 76.723831827214994, 20.976168172785009 ], [ 76.588364992500729, 20.870504802853748 ], [ 76.529651339329547, 20.7 ], [ 76.564654778100277, 20.519674104774811 ], [ 76.72893628411741, 20.428936284117409 ], [ 76.815287181520389, 20.25406380848235 ], [ 77.0, 20.314799110105909 ], [ 77.169801943971947, 20.290061843945612 ], [ 77.28027725538972, 20.419722744610286 ], [ 77.371710346129944, 20.546032533358577 ], [ 77.389493448189199, 20.7 ] ] ] } },
{ "type": "Feature", "properties": { "district": "Buldhana", "lon": 76.35, "lat": 20.53, "division": "Vidarbha", "radius": 0.55, "raw_mean": 42.8, "corr_mean": 19.8, "corr_p90": 26.3, "corr_max": 32.7, "dominant_regime": 0, "p_heavy": 0.005, "p_very_heavy": 0.0, "p_extremely_heavy": 0.0, "alert_level": "Yellow", "alert_color": "#bcbd22", "cell_count": 16, "explanation": "Classified as **Active Monsoon** characterized by a well-established low-level westerly jet (12.0 m/s), abundant tropospheric moisture (80.0%), and widespread monsoon precipitation without isolated cyclonic centers." }, "geometry": { "type": "Polygon", "coordinates": [ [ [ 76.828477383864339, 20.53 ], [ 76.817681448947667, 20.723719999024429 ], [ 76.775780183032523, 20.955780183032527 ], [ 76.550843863271908, 21.014879978630447 ], [ 76.35, 21.079696122620341 ], [ 76.169507042253187, 20.965748546505189 ], [ 75.928178442461061, 20.951821557538935 ], [ 75.822232341449848, 20.748608521953365 ], [ 75.871267652676195, 20.53 ], [ 75.842421572779472, 20.319754131477254 ], [ 75.993307728197294, 20.173307728197308 ], [ 76.125355186556973, 19.987659444669077 ], [ 76.35, 20.008011526296922 ], [ 76.578043917694771, 19.979453281084567 ], [ 76.707120544620324, 20.172879455379665 ], [ 76.808075604402092, 20.3402588720644 ], [ 76.828477383864339, 20.53 ] ] ] } },
{ "type": "Feature", "properties": { "district": "Washim", "lon": 77.13, "lat": 20.1, "division": "Vidarbha", "radius": 0.4, "raw_mean": 39.9, "corr_mean": 17.7, "corr_p90": 19.3, "corr_max": 20.2, "dominant_regime": 0, "p_heavy": 0.005, "p_very_heavy": 0.0, "p_extremely_heavy": 0.0, "alert_level": "Yellow", "alert_color": "#bcbd22", "cell_count": 7, "explanation": "Classified as **Active Monsoon** characterized by a well-established low-level westerly jet (12.0 m/s), abundant tropospheric moisture (80.0%), and widespread monsoon precipitation without isolated cyclonic centers." }, "geometry": { "type": "Polygon", "coordinates": [ [ [ 77.581425927194672, 20.1 ], [ 77.534808623040263, 20.267677221828858 ], [ 77.421794613039907, 20.391794613039913 ], [ 77.302229983781174, 20.515799962691808 ], [ 77.13, 20.505061816691828 ], [ 76.996722333224625, 20.421760750690549 ], [ 76.82851553053078, 20.401484469469217 ], [ 76.753512605537267, 20.255946184848973 ], [ 76.772441439366645, 20.1 ], [ 76.815127336189946, 19.969575472229334 ], [ 76.885833090796723, 19.855833090796725 ], [ 76.96681105504652, 19.706027035863968 ], [ 77.13, 19.679936748647204 ], [ 77.263416787641106, 19.77790338182858 ], [ 77.373079739537559, 19.856920260462442 ], [ 77.464328964907466, 19.96151640844117 ], [ 77.581425927194672, 20.1 ] ] ] } },
{ "type": "Feature", "properties": { "district": "Yavatmal", "lon": 78.13, "lat": 20.38, "division": "Vidarbha", "radius": 0.65, "raw_mean": 41.1, "corr_mean": 18.6, "corr_p90": 21.4, "corr_max": 30.4, "dominant_regime": 0, "p_heavy": 0.005, "p_very_heavy": 0.0, "p_extremely_heavy": 0.0, "alert_level": "Yellow", "alert_color": "#bcbd22", "cell_count": 21, "explanation": "Classified as **Active Monsoon** characterized by a well-established low-level westerly jet (12.0 m/s), abundant tropospheric moisture (80.0%), and widespread monsoon precipitation without isolated cyclonic centers." }, "geometry": { "type": "Polygon", "coordinates": [ [ [ 78.694936161324364, 20.38 ], [ 78.757557207423744, 20.639942706479903 ], [ 78.585664666660705, 20.835664666660708 ], [ 78.388375829831688, 21.003774432569067 ], [ 78.13, 21.010241130100567 ], [ 77.912557759744942, 20.904952005456554 ], [ 77.618366038738188, 20.891633961261807 ], [ 77.46418434341885, 20.655789874996259 ], [ 77.411334889740132, 20.38 ], [ 77.556150356607276, 20.14230369494377 ], [ 77.734239804552175, 19.984239804552182 ], [ 77.874955876386394, 19.764269017768481 ], [ 78.13, 19.674888609413351 ], [ 78.396952420894152, 19.735519844969001 ], [ 78.560688910377849, 19.949311089622149 ], [ 78.703069310577661, 20.14262691937893 ], [ 78.694936161324364, 20.38 ] ] ] } },
{ "type": "Feature", "properties": { "district": "Nagpur", "lon": 79.08, "lat": 21.15, "division": "Vidarbha", "radius": 0.55, "raw_mean": 42.9, "corr_mean": 19.9, "corr_p90": 25.5, "corr_max": 27.0, "dominant_regime": 0, "p_heavy": 0.005, "p_very_heavy": 0.0, "p_extremely_heavy": 0.0, "alert_level": "Yellow", "alert_color": "#bcbd22", "cell_count": 12, "explanation": "Classified as **Active Monsoon** characterized by a well-established low-level westerly jet (12.0 m/s), abundant tropospheric moisture (80.0%), and widespread monsoon precipitation without isolated cyclonic centers." }, "geometry": { "type": "Polygon", "coordinates": [ [ [ 79.591188470935862, 21.15 ], [ 79.545911874662494, 21.342987017355878 ], [ 79.464343007929827, 21.534343007929831 ], [ 79.313539816168017, 21.713814991546961 ], [ 79.08, 21.660819103359906 ], [ 78.869376348600895, 21.658490475764264 ], [ 78.744474758852135, 21.485525241147862 ], [ 78.620233319839201, 21.340441594449853 ], [ 78.531240214270667, 21.15 ], [ 78.638234142414973, 20.9670145903949 ], [ 78.710440605278166, 20.780440605278169 ], [ 78.878969721080651, 20.664669974185262 ], [ 79.08, 20.660680101192934 ], [ 79.312510090225146, 20.588670986789865 ], [ 79.491882357264743, 20.738117642735251 ], [ 79.594953991507438, 20.936699072719456 ], [ 79.591188470935862, 21.15 ] ] ] } },
{ "type": "Feature", "properties": { "district": "Wardha", "lon": 78.6, "lat": 20.75, "division": "Vidarbha", "radius": 0.45, "raw_mean": 39.9, "corr_mean": 17.8, "corr_p90": 21.1, "corr_max": 24.0, "dominant_regime": 0, "p_heavy": 0.005, "p_very_heavy": 0.0, "p_extremely_heavy": 0.0, "alert_level": "Yellow", "alert_color": "#bcbd22", "cell_count": 10, "explanation": "Classified as **Active Monsoon** characterized by a well-established low-level westerly jet (12.0 m/s), abundant tropospheric moisture (80.0%), and widespread monsoon precipitation without isolated cyclonic centers." }, "geometry": { "type": "Polygon", "coordinates": [ [ [ 79.074335223295634, 20.75 ], [ 78.963602440836382, 20.900609062306394 ], [ 78.894956702434627, 21.044956702434632 ], [ 78.76722954184784, 21.153727827958509 ], [ 78.6, 21.134361811707397 ], [ 78.439818157980056, 21.136713175450438 ], [ 78.242577231895794, 21.107422768104204 ], [ 78.167652711216419, 20.929084110669393 ], [ 78.19095464230162, 20.75 ], [ 78.149019161568347, 20.563197620351222 ], [ 78.304386550038387, 20.454386550038386 ], [ 78.450578429509747, 20.389264418011351 ], [ 78.6, 20.265933227854276 ], [ 78.748068899788009, 20.392530053966112 ], [ 78.923789517376505, 20.426210482623485 ], [ 79.05853687247469, 20.560067808572843 ], [ 79.074335223295634, 20.75 ] ] ] } },
{ "type": "Feature", "properties": { "district": "Bhandara", "lon": 79.65, "lat": 21.17, "division": "Vidarbha", "radius": 0.4, "raw_mean": 44.8, "corr_mean": 21.2, "corr_p90": 26.0, "corr_max": 27.0, "dominant_regime": 0, "p_heavy": 0.005, "p_very_heavy": 0.0, "p_extremely_heavy": 0.0, "alert_level": "Yellow", "alert_color": "#bcbd22", "cell_count": 9, "explanation": "Classified as **Active Monsoon** characterized by a well-established low-level westerly jet (12.0 m/s), abundant tropospheric moisture (80.0%), and widespread monsoon precipitation without isolated cyclonic centers." }, "geometry": { "type": "Polygon", "coordinates": [ [ [ 80.030151626068374, 21.17 ], [ 80.050141764889489, 21.335744145889134 ], [ 79.89347212197768, 21.413472121977669 ], [ 79.801901479130649, 21.53672261106172 ], [ 79.65, 21.568566685349133 ], [ 79.517636920003781, 21.489552742884349 ], [ 79.385641880996502, 21.434358119003498 ], [ 79.230773830750607, 21.34364916500482 ], [ 79.230602480682435, 21.17 ], [ 79.30028202247901, 21.025142070705119 ], [ 79.386018399921241, 20.906018399921241 ], [ 79.507170575027374, 20.825179265125129 ], [ 79.65, 20.739930602605604 ], [ 79.824187118845245, 20.749475095293132 ], [ 79.961064797907213, 20.858935202092795 ], [ 80.035484028802642, 21.010327287191728 ], [ 80.030151626068374, 21.17 ] ] ] } },
{ "type": "Feature", "properties": { "district": "Gondia", "lon": 80.2, "lat": 21.45, "division": "Vidarbha", "radius": 0.45, "raw_mean": 45.9, "corr_mean": 22.0, "corr_p90": 25.2, "corr_max": 25.8, "dominant_regime": 0, "p_heavy": 0.005, "p_very_heavy": 0.0, "p_extremely_heavy": 0.0, "alert_level": "Yellow", "alert_color": "#bcbd22", "cell_count": 8, "explanation": "Classified as **Active Monsoon** characterized by a well-established low-level westerly jet (12.0 m/s), abundant tropospheric moisture (80.0%), and widespread monsoon precipitation without isolated cyclonic centers." }, "geometry": { "type": "Polygon", "coordinates": [ [ [ 80.666055432853639, 21.45 ], [ 80.557872982360024, 21.598235842900429 ], [ 80.486546624280464, 21.736546624280457 ], [ 80.39353712692926, 21.917239956655326 ], [ 80.2, 21.948961554537664 ], [ 80.041698365289534, 21.832173953463833 ], [ 79.895497366518939, 21.754502633481067 ], [ 79.827326271964381, 21.604366512492497 ], [ 79.789712072139181, 21.45 ], [ 79.807600883545675, 21.287462964101397 ], [ 79.86142454817994, 21.111424548179937 ], [ 80.029554224697378, 21.0385074976152 ], [ 80.2, 21.026543827786146 ], [ 80.380023316290249, 21.015385268268695 ], [ 80.560219812804846, 21.08978018719516 ], [ 80.6148258211105, 21.278173518873473 ], [ 80.666055432853639, 21.45 ] ] ] } },
{ "type": "Feature", "properties": { "district": "Chandrapur", "lon": 79.3, "lat": 19.95, "division": "Vidarbha", "radius": 0.65, "raw_mean": 38.6, "corr_mean": 16.8, "corr_p90": 19.6, "corr_max": 23.3, "dominant_regime": 0, "p_heavy": 0.005, "p_very_heavy": 0.0, "p_extremely_heavy": 0.0, "alert_level": "Yellow", "alert_color": "#bcbd22", "cell_count": 19, "explanation": "Classified as **Active Monsoon** characterized by a well-established low-level westerly jet (12.0 m/s), abundant tropospheric moisture (80.0%), and widespread monsoon precipitation without isolated cyclonic centers." }, "geometry": { "type": "Polygon", "coordinates": [ [ [ 79.935311323693725, 19.95 ], [ 79.981893441368953, 20.232449511508285 ], [ 79.752677294173751, 20.40267729417376 ], [ 79.572283277175544, 20.607349980564607 ], [ 79.3, 20.690733119751929 ], [ 79.018411835859098, 20.62981396487271 ], [ 78.780940706167016, 20.469059293832984 ], [ 78.740547559932239, 20.181732788178788 ], [ 78.693876355651426, 19.95 ], [ 78.774933069871224, 19.732510156387054 ], [ 78.909198549747714, 19.55919854974772 ], [ 79.055594110677191, 19.359951987273028 ], [ 79.3, 19.326923109559893 ], [ 79.52583533319941, 19.404785275726933 ], [ 79.722738064217239, 19.527261935782754 ], [ 79.968489092283889, 19.673102751677529 ], [ 79.935311323693725, 19.95 ] ] ] } },
{ "type": "Feature", "properties": { "district": "Gadchiroli", "lon": 80.0, "lat": 19.8, "division": "Vidarbha", "radius": 0.8, "raw_mean": 38.7, "corr_mean": 16.9, "corr_p90": 20.3, "corr_max": 22.9, "dominant_regime": 0, "p_heavy": 0.005, "p_very_heavy": 0.0, "p_extremely_heavy": 0.0, "alert_level": "Yellow", "alert_color": "#bcbd22", "cell_count": 32, "explanation": "Classified as **Active Monsoon** characterized by a well-established low-level westerly jet (12.0 m/s), abundant tropospheric moisture (80.0%), and widespread monsoon precipitation without isolated cyclonic centers." }, "geometry": { "type": "Polygon", "coordinates": [ [ [ 80.888675702519421, 19.8 ], [ 80.794745732573006, 20.129194461069879 ], [ 80.58460326671424, 20.384603266714244 ], [ 80.335310894938345, 20.609512110171611 ], [ 80.0, 20.62208724385102 ], [ 79.69363994954891, 20.539618588768317 ], [ 79.506071017444867, 20.293928982555133 ], [ 79.17035691813291, 20.143649416438361 ], [ 79.22193085011142, 19.8 ], [ 79.176989198881657, 19.459097764197235 ], [ 79.428666427936477, 19.228666427936478 ], [ 79.693236281468145, 19.059406870276408 ], [ 80.0, 18.914786647601645 ], [ 80.339921151378533, 18.979357746204453 ], [ 80.486670233462988, 19.313329766537009 ], [ 80.817224582955717, 19.461494494235044 ], [ 80.888675702519421, 19.8 ] ] ] } }
]
}
